COSMOS 2503             
1 40420U 15009A   26068.69626972  .00002817  00000+0  19590-3 0  9998
2 40420  97.8437 123.7175 0015321 225.7450 134.2520 15.06275973603958
STARLINK-3748           
1 52267U 22041G   26068.49848873 -.00000117  00000+0  10769-4 0  9990
2 52267  53.2169 109.9860 0001454  81.4057 278.7100 15.08841227214338
